NORAD_CAT_ID,OBJECT_NAME,OBJECT_TYPE,EPOCH,MEAN_MOTION,ECCENTRICITY,INCLINATION,RA_OF_ASC_NODE,ARG_OF_PERICENTER,MEAN_ANOMALY,BSTAR,MEAN_MOTION_DOT,MEAN_MOTION_DDOT,TLE_LINE0,TLE_LINE1,TLE_LINE2,SEMIMAJOR_AXIS,PERIOD,APOGEE,PERIGEE,DECAYED
53407.0,STARLINK-4537,PAYLOAD,2022-08-26 06:00:00,15.73215221,0.0001051,53.2198,168.5962,63.8062,204.9066,-0.00015359,-0.00022132,0.0,0 STARLINK-4537,1 53407U 22097V   22238.25001157 -.00022132  00000-0 -15359-3 0  9995,2 53407  53.2198 168.5962 0001051  63.8062 204.9066 15.73215221  2950,6727.852,91.532,350.4240000000001,349.01,0.0
53407.0,STARLINK-4537,PAYLOAD,2022-08-26 14:00:01,15.73164494,7.87e-05,53.2197,166.9448,76.2143,281.5218,0.00032555,0.00045245,0.0,0 STARLINK-4537,1 53407U 22097V   22238.58335648  .00045245  00000-0  32555-3 0  9991,2 53407  53.2197 166.9448 0000787  76.2143 281.5218 15.73164494  1306,6727.996,91.535,350.391,349.332,0.0
53407.0,STARLINK-4537,PAYLOAD,2022-08-26 22:00:00,15.73214707,8.25e-05,53.2198,165.2962,77.3101,9.2536,9.8597e-06,7.66e-06,0.0,0 STARLINK-4537,1 53407U 22097V   22238.91667824  .00000766  00000-0  98597-5 0  9991,2 53407  53.2198 165.2962 0000825  77.3101   9.2536 15.73214707  1300,6727.853,91.532,350.273,349.163,0.0
53407.0,STARLINK-4537,PAYLOAD,2022-08-27 14:00:01,15.73173239,9.62e-05,53.2202,161.9969,77.6936,186.787,0.00033202,0.00046179,0.0,0 STARLINK-4537,1 53407U 22097V   22239.58334491  .00046179  00000-0  33202-3 0  9994,2 53407  53.2202 161.9969 0000962  77.6936 186.7870 15.73173239  1303,6727.971,91.535,350.4840000000001,349.189,0.0
53407.0,STARLINK-4537,PAYLOAD,2022-08-27 22:00:00,15.73237619,0.0001001,53.2204,160.3481,76.465,276.9173,-0.00028674,-0.0004073,0.0,0 STARLINK-4537,1 53407U 22097V   22239.91667824 -.00040730  00000-0 -28674-3 0  9996,2 53407  53.2204 160.3481 0001001  76.4650 276.9173 15.73237619  1303,6727.788000000001,91.531,350.326,348.97900000000016,0.0
53407.0,STARLINK-4537,PAYLOAD,2022-08-28 06:00:00,15.73183985,9.03e-05,53.2201,158.7001,61.5553,20.8081,0.00023796,0.00032884,0.0,0 STARLINK-4537,1 53407U 22097V   22240.25001157  .00032884  00000-0  23796-3 0  9995,2 53407  53.2201 158.7001 0000903  61.5553  20.8081 15.73183985  3274,6727.941,91.534,350.413,349.1980000000001,0.0
53407.0,STARLINK-4537,PAYLOAD,2022-08-28 14:00:01,15.73221751,0.0001093,53.22,157.0487,81.4888,89.7491,-0.00022962,-0.00032749,0.0,0 STARLINK-4537,1 53407U 22097V   22240.58334491 -.00032749  00000-0 -22962-3 0  9997,2 53407  53.2200 157.0487 0001093  81.4888  89.7491 15.73221751  1301,6727.833000000001,91.532,350.434,348.963,0.0
53407.0,STARLINK-4537,PAYLOAD,2022-08-28 22:00:00,15.73182324,0.0001046,53.22,155.4007,79.1982,180.9558,-1.1213e-05,-2.191e-05,0.0,0 STARLINK-4537,1 53407U 22097V   22240.91667824 -.00002191  00000-0 -11213-4 0  9999,2 53407  53.2200 155.4007 0001046  79.1982 180.9558 15.73182324  1308,6727.946,91.534,350.514,349.107,0.0
53407.0,STARLINK-4537,PAYLOAD,2022-08-29 14:00:01,15.73207829,9.990000000000004e-05,53.2201,152.101,82.2817,355.7282,0.00032525,0.00045288,0.0,0 STARLINK-4537,1 53407U 22097V   22241.58334491  .00045288  00000-0  32525-3 0  9994,2 53407  53.2201 152.1010 0000999  82.2817 355.7282 15.73207829  1309,6727.873000000001,91.533,350.41,349.066,0.0
53407.0,STARLINK-4537,PAYLOAD,2022-08-29 16:00:00,15.73232189,0.0001048,53.2199,151.6883,84.4098,105.8341,7.4142e-05,9.812e-05,0.0,0 STARLINK-4537,1 53407U 22097V   22241.66667824  .00009812  00000-0  74142-4 0  9997,2 53407  53.2199 151.6883 0001048  84.4098 105.8341 15.73232189  3497,6727.803000000001,91.531,350.37300000000016,348.963,0.0
53407.0,STARLINK-4537,PAYLOAD,2022-08-29 22:00:00,15.73242624,0.0001214,53.2202,150.4525,78.3952,88.5793,-0.00035619,-0.000504,0.0,0 STARLINK-4537,1 53407U 22097V   22241.91667824 -.00050400  00000-0 -35619-3 0  9991,2 53407  53.2202 150.4525 0001214  78.3952  88.5793 15.73242624  1309,6727.774,91.531,350.455,348.82199999999995,0.0
53407.0,STARLINK-4537,PAYLOAD,2022-08-30 06:00:00,15.73196342,0.0001240999999999,53.2197,148.8041,70.2794,185.6407,0.00041588,0.00058141,0.0,0 STARLINK-4537,1 53407U 22097V   22242.25001157  .00058141  00000-0  41588-3 0  9990,2 53407  53.2197 148.8041 0001241  70.2794 185.6407 15.73196342  3589,6727.906,91.533,350.606,348.936,0.0
53407.0,STARLINK-4537,PAYLOAD,2022-08-30 14:00:01,15.7323707,0.0001085999999999,53.2196,147.1527,83.0631,261.8209,-0.00043799,-0.00061735,0.0,0 STARLINK-4537,1 53407U 22097V   22242.58334491 -.00061735  00000-0 -43799-3 0  9997,2 53407  53.2196 147.1527 0001086  83.0631 261.8209 15.73237070  1307,6727.7890000000025,91.531,350.385,348.9240000000001,0.0
53407.0,STARLINK-4537,PAYLOAD,2022-08-30 22:00:00,15.73178132,0.0001171,53.2195,145.5047,79.7986,354.0329,-0.00023446,-0.00033363,0.0,0 STARLINK-4537,1 53407U 22097V   22242.91667824 -.00033363  00000-0 -23446-3 0  9996,2 53407  53.2195 145.5047 0001171  79.7986 354.0329 15.73178132  1306,6727.958000000001,91.534,350.61,349.035,0.0
53407.0,STARLINK-4537,PAYLOAD,2022-08-31 14:00:01,15.7319704,0.0001002999999999,53.2194,142.2046,85.9858,165.6379,-4.8002e-05,-7.349e-05,0.0,0 STARLINK-4537,1 53407U 22097V   22243.58334491 -.00007349  00000-0 -48002-4 0  9992,2 53407  53.2194 142.2046 0001003  85.9858 165.6379 15.73197040  3794,6727.904,91.533,350.4430000000001,349.094,0.0
53407.0,STARLINK-4537,PAYLOAD,2022-08-31 22:00:00,15.73172423,9.51e-05,53.2196,140.5565,76.2024,264.3438,1.2582e-05,1.145e-05,0.0,0 STARLINK-4537,1 53407U 22097V   22243.91667824  .00001145  00000-0  12582-4 0  9998,2 53407  53.2196 140.5565 0000951  76.2024 264.3438 15.73172423  1308,6727.974,91.535,350.47900000000016,349.199,0.0
53407.0,STARLINK-4537,PAYLOAD,2022-09-01 14:00:01,15.73216566,9.38e-05,53.2191,137.2564,84.1785,74.2498,-4.7678e-05,-7.309e-05,0.0,0 STARLINK-4537,1 53407U 22097V   22244.58335648 -.00007309  00000-0 -47678-4 0  9992,2 53407  53.2191 137.2564 0000938  84.1785  74.2498 15.73216566  3956,6727.848000000001,91.532,350.344,349.082,0.0
53407.0,STARLINK-4537,PAYLOAD,2022-09-01 22:00:00,15.73198579,0.0001136,53.2191,135.6087,77.5129,169.799,7.9193e-05,0.00010508,0.0,0 STARLINK-4537,1 53407U 22097V   22244.91667824  .00010508  00000-0  79193-4 0  9993,2 53407  53.2191 135.6087 0001136  77.5129 169.7990 15.73198579  1304,6727.899,91.533,350.529,349.0,0.0
53407.0,STARLINK-4537,PAYLOAD,2022-09-02 14:00:01,15.73193778,8.36e-05,53.2191,132.3082,85.3189,339.8419,-1.8014e-05,-3.145e-05,0.0,0 STARLINK-4537,1 53407U 22097V   22245.58334491 -.00003145  00000-0 -18014-4 0  9994,2 53407  53.2191 132.3082 0000836  85.3189 339.8419 15.73193778  1304,6727.913000000001,91.534,350.34,349.215,0.0
53407.0,STARLINK-4537,PAYLOAD,2022-09-02 22:00:01,15.73197083,8.62e-05,53.2193,130.6604,71.4757,82.6713,4.6994e-05,5.98e-05,0.0,0 STARLINK-4537,1 53407U 22097V   22245.91668981  .00005980  00000-0  46994-4 0  9990,2 53407  53.2193 130.6604 0000862  71.4757  82.6713 15.73197083  1306,6727.903,91.533,350.348,349.189,0.0
53407.0,STARLINK-4537,PAYLOAD,2022-09-03 00:00:00,15.73189715,9.21e-05,53.2194,130.2486,67.9258,198.3884,0.0002144,0.00029562,0.0,0 STARLINK-4537,1 53407U 22097V   22246.00001157  .00029562  00000-0  21440-3 0  9997,2 53407  53.2194 130.2486 0000921  67.9258 198.3884 15.73189715  4178,6727.924,91.534,350.409,349.17,0.0
53407.0,STARLINK-4537,PAYLOAD,2022-09-03 14:00:01,15.73220144,8.9e-05,53.2193,127.36,83.652,248.3397,0.00011219,0.00015167,0.0,0 STARLINK-4537,1 53407U 22097V   22246.58334491  .00015167  00000-0  11219-3 0  9999,2 53407  53.2193 127.3600 0000890  83.6520 248.3397 15.73220144  1303,6727.8380000000025,91.532,350.302,349.10400000000016,0.0
53407.0,STARLINK-4537,PAYLOAD,2022-09-03 22:00:00,15.73266462,9.17e-05,53.2192,125.7124,72.2563,348.6874,-0.00064024,-0.0008977,0.0,0 STARLINK-4537,1 53407U 22097V   22246.91667824 -.00089770  00000-0 -64024-3 0  9990,2 53407  53.2192 125.7124 0000917  72.2563 348.6874 15.73266462  1303,6727.706,91.529,350.18800000000016,348.954,0.0
53407.0,STARLINK-4537,PAYLOAD,2022-09-04 06:00:00,15.73206069,7.56e-05,53.219,124.0631,64.2037,85.6983,0.00016371,0.00022423,0.0,0 STARLINK-4537,1 53407U 22097V   22247.25001157  .00022423  00000-0  16371-3 0  9991,2 53407  53.2190 124.0631 0000756  64.2037  85.6983 15.73206069  4370,6727.878000000002,91.533,350.251,349.2340000000001,0.0
53407.0,STARLINK-4537,PAYLOAD,2022-09-04 14:00:01,15.73238282,7.780000000000001e-05,53.2187,122.4118,83.6189,155.2945,-0.00014864,-0.0002145999999999,0.0,0 STARLINK-4537,1 53407U 22097V   22247.58335648 -.00021460  00000-0 -14864-3 0  9999,2 53407  53.2187 122.4118 0000778  83.6189 155.2945 15.73238282  1309,6727.786,91.531,350.1740000000001,349.12800000000016,0.0
53407.0,STARLINK-4537,PAYLOAD,2022-09-04 20:00:01,15.73235294,9.47e-05,53.2186,121.1762,74.857,140.7469,8.6145e-05,0.00011505,0.0,0 STARLINK-4537,1 53407U 22097V   22247.83334491  .00011505  00000-0  86145-4 0  9991,2 53407  53.2186 121.1762 0000947  74.8570 140.7469 15.73235294  1303,6727.795,91.531,350.297,349.022,0.0
53407.0,STARLINK-4537,PAYLOAD,2022-09-05 14:00:01,15.73246539,9.96e-05,53.2178,117.4636,83.8118,62.0192,-0.00021514,-0.00030762,0.0,0 STARLINK-4537,1 53407U 22097V   22248.58334491 -.00030762  00000-0 -21514-3 0  9990,2 53407  53.2178 117.4636 0000996  83.8118  62.0192 15.73246539  4580,6727.762,91.53,350.298,348.957,0.0
53407.0,STARLINK-4537,PAYLOAD,2022-09-05 22:00:00,15.7320805,0.0001044999999999,53.2177,115.8163,68.7035,166.1055,-0.00027384,-0.00038886,0.0,0 STARLINK-4537,1 53407U 22097V   22248.91667824 -.00038886  00000-0 -27384-3 0  9992,2 53407  53.2177 115.8163 0001045  68.7035 166.1055 15.73208050  1309,6727.871999999999,91.533,350.44,349.034,0.0
53407.0,STARLINK-4537,PAYLOAD,2022-09-06 06:00:00,15.73170171,9.21e-05,53.2174,114.1666,68.9924,254.6053,-0.00075985,-0.00105789,0.0,0 STARLINK-4537,1 53407U 22097V   22249.25001157 -.00105789  00000-0 -75985-3 0  9998,2 53407  53.2174 114.1666 0000921  68.9924 254.6053 15.73170171  4684,6727.98,91.535,350.465,349.226,0.0
